[{"OBJECT_NAME":"MALLIGYONG-1","OBJECT_ID":"2023-179A","EPOCH":"2026-03-09T23:34:09.992640","MEAN_MOTION":15.22003697,"ECCENTRICITY":0.00093214,"INCLINATION":97.316,"RA_OF_ASC_NODE":313.2885,"ARG_OF_PERICENTER":28.0346,"MEAN_ANOMALY":332.1391,"EPHEMERIS_TYPE":0,"CLASSIFICATION_TYPE":"U","NORAD_CAT_ID":58400,"ELEMENT_SET_NO":999,"REV_AT_EPOCH":12766,"BSTAR":0.00019369443,"MEAN_MOTION_DOT":4.359e-5,"MEAN_MOTION_DDOT":0},{"OBJECT_NAME":"LEMUR-2-LAILA","OBJECT_ID":"2025-276DQ","EPOCH":"2026-03-09T17:30:24.523200","MEAN_MOTION":15.2007121,"ECCENTRICITY":0.00022825,"INCLINATION":97.4243,"RA_OF_ASC_NODE":144.1425,"ARG_OF_PERICENTER":132.0154,"MEAN_ANOMALY":228.1276,"EPHEMERIS_TYPE":0,"CLASSIFICATION_TYPE":"U","NORAD_CAT_ID":66776,"ELEMENT_SET_NO":999,"REV_AT_EPOCH":1533,"BSTAR":0.00035559412,"MEAN_MOTION_DOT":7.609e-5,"MEAN_MOTION_DDOT":0}]
